NORAD_CAT_ID,OBJECT_NAME,OBJECT_TYPE,EPOCH,MEAN_MOTION,ECCENTRICITY,INCLINATION,RA_OF_ASC_NODE,ARG_OF_PERICENTER,MEAN_ANOMALY,BSTAR,MEAN_MOTION_DOT,MEAN_MOTION_DDOT,TLE_LINE0,TLE_LINE1,TLE_LINE2,SEMIMAJOR_AXIS,PERIOD,APOGEE,PERIGEE,DECAYED
51738.0,STARLINK-3515,PAYLOAD,2024-02-18 19:11:42,15.08838637,0.0001969,53.2181,85.5118,103.9661,256.155,-6.6384e-05,-1.345e-05,0.0,0 STARLINK-3515,1 51738U 22016AA  24049.79979763 -.00001345  00000-0 -66384-4 0  9997,2 51738  53.2181  85.5118 0001969 103.9661 256.1550 15.08838637111461,6917.885,95.438,541.112,538.387,0.0
51738.0,STARLINK-3515,PAYLOAD,2024-02-19 03:08:38,15.08838587,0.0001881,53.217,84.0236,103.7155,256.4046,2.4271e-05,9.8e-07,0.0,0 STARLINK-3515,1 51738U 22016AA  24050.13099804  .00000098  00000-0  24271-4 0  9997,2 51738  53.2170  84.0236 0001881 103.7155 256.4046 15.08838587111516,6917.885,95.438,541.051,538.448,0.0
51738.0,STARLINK-3515,PAYLOAD,2024-02-19 09:30:10,15.08843363,0.0001806,53.2176,82.834,104.1814,255.9379,8.233e-05,1.023e-05,0.0,0 STARLINK-3515,1 51738U 22016AA  24050.39595777  .00001023  00000-0  82330-4 0  9994,2 51738  53.2176  82.8340 0001806 104.1814 255.9379 15.08843363111553,6917.87,95.437,540.984,538.486,0.0
51738.0,STARLINK-3515,PAYLOAD,2024-02-19 19:02:29,15.08842985,0.0001612,53.2166,81.0464,89.4878,270.6299,9.3641e-05,1.203e-05,0.0,0 STARLINK-3515,1 51738U 22016AA  24050.79339775  .00001203  00000-0  93641-4 0  9999,2 51738  53.2166  81.0464 0001612  89.4878 270.6299 15.08842985111611,6917.871,95.437,540.851,538.621,0.0
51738.0,STARLINK-3515,PAYLOAD,2024-02-20 10:56:21,15.08837065,0.0001889,53.2182,78.0707,90.4886,269.6322,7.5354e-05,9.11e-06,0.0,0 STARLINK-3515,1 51738U 22016AA  24051.45580402  .00000911  00000-0  75354-4 0  9994,2 51738  53.2182  78.0707 0001889  90.4886 269.6322 15.08837065111711,6917.889,95.438,541.061,538.448,0.0
51738.0,STARLINK-3515,PAYLOAD,2024-02-20 18:53:17,15.08837106,0.0001845,53.218,76.5871,88.7392,271.3811,7.5153e-05,9.08e-06,0.0,0 STARLINK-3515,1 51738U 22016AA  24051.78700508  .00000908  00000-0  75153-4 0  9994,2 51738  53.2180  76.5871 0001845  88.7392 271.3811 15.08837106111762,6917.889,95.438,541.031,538.478,0.0
51738.0,STARLINK-3515,PAYLOAD,2024-02-21 09:11:44,15.08847742,0.0001554,53.2164,73.9085,88.0224,272.0946,0.00011363,1.521e-05,0.0,0 STARLINK-3515,1 51738U 22016AA  24052.38315723  .00001521  00000-0  11363-3 0  9996,2 51738  53.2164  73.9085 0001554  88.0224 272.0946 15.08847742111850,6917.857,95.437,540.797,538.647,0.0
51738.0,STARLINK-3515,PAYLOAD,2024-02-22 10:37:55,15.08842894,0.0001674,53.2173,69.1491,94.3656,265.7528,6.7808e-05,7.91e-06,0.0,0 STARLINK-3515,1 51738U 22016AA  24053.44300074  .00000791  00000-0  67808-4 0  9991,2 51738  53.2173  69.1491 0001674  94.3656 265.7528 15.08842894112017,6917.872,95.437,540.895,538.578,0.0
51738.0,STARLINK-3515,PAYLOAD,2024-02-22 18:34:51,15.08838678,0.000146,53.2164,67.6606,100.9912,259.1245,5.533e-05,5.93e-06,0.0,0 STARLINK-3515,1 51738U 22016AA  24053.77420291  .00000593  00000-0  55330-4 0  9998,2 51738  53.2164  67.6606 0001460 100.9912 259.1245 15.08838678112063,6917.884,95.438,540.759,538.739,0.0
51738.0,STARLINK-3515,PAYLOAD,2024-02-23 07:17:55,15.08843881,0.0001605,53.2167,65.2811,103.8172,256.2998,2.666e-05,1.36e-06,0.0,0 STARLINK-3515,1 51738U 22016AA  24054.30412032  .00000136  00000-0  26660-4 0  9999,2 51738  53.2167  65.2811 0001605 103.8172 256.2998 15.08843881112143,6917.869,95.437,540.844,538.623,0.0
51738.0,STARLINK-3515,PAYLOAD,2024-02-24 03:57:56,15.08839151,0.0001459,53.2159,61.4156,100.9945,259.1211,6.0521e-05,6.75e-06,0.0,0 STARLINK-3515,1 51738U 22016AA  24055.16524297  .00000675  00000-0  60521-4 0  9993,2 51738  53.2159  61.4156 0001459 100.9945 259.1211 15.08839151112276,6917.883,95.438,540.757,538.739,0.0
51738.0,STARLINK-3515,PAYLOAD,2024-02-24 10:19:29,15.08842384,0.0001376,53.2155,60.2278,92.7353,267.3797,6.7974e-05,7.94e-06,0.0,0 STARLINK-3515,1 51738U 22016AA  24055.43020151  .00000794  00000-0  67974-4 0  9994,2 51738  53.2155  60.2278 0001376  92.7353 267.3797 15.08842384112310,6917.873,95.437,540.69,538.786,0.0
51738.0,STARLINK-3515,PAYLOAD,2024-02-24 16:41:02,15.08842126,0.0001429,53.2162,59.0382,92.4048,267.7108,1.1598e-05,-1.03e-06,0.0,0 STARLINK-3515,1 51738U 22016AA  24055.69516315 -.00000103  00000-0  11598-4 0  9990,2 51738  53.2162  59.0382 0001429  92.4048 267.7108 15.08842126112355,6917.874,95.437,540.727,538.75,0.0
51738.0,STARLINK-3515,PAYLOAD,2024-02-24 23:02:35,15.08833108,0.0001549,53.2163,57.8495,93.5149,266.602,3.8099e-05,3.18e-06,0.0,0 STARLINK-3515,1 51738U 22016AA  24055.96012975  .00000318  00000-0  38099-4 0  9995,2 51738  53.2163  57.8495 0001549  93.5149 266.6020 15.08833108111286,6917.901,95.438,540.838,538.695,0.0
51738.0,STARLINK-3515,PAYLOAD,2024-02-25 05:24:07,15.08839043,0.0001576,53.2169,56.6608,98.5216,261.5955,5.1898e-05,5.38e-06,0.0,0 STARLINK-3515,1 51738U 22016AA  24056.22508587  .00000538  00000-0  51898-4 0  9990,2 51738  53.2169  56.6608 0001576  98.5216 261.5955 15.08839043112438,6917.883,95.438,540.839,538.658,0.0
51738.0,STARLINK-3515,PAYLOAD,2024-02-25 06:59:30,15.08842597,0.0001478,53.2171,56.3646,95.8046,264.3115,6.801e-05,7.95e-06,0.0,0 STARLINK-3515,1 51738U 22016AA  24056.29132339  .00000795  00000-0  68010-4 0  9994,2 51738  53.2171  56.3646 0001478  95.8046 264.3115 15.08842597112440,6917.872,95.437,540.76,538.715,0.0
51738.0,STARLINK-3515,PAYLOAD,2024-02-25 16:31:49,15.08839466,0.0001471,53.2173,54.5813,97.3006,262.8153,7.4626e-05,9e-06,0.0,0 STARLINK-3515,1 51738U 22016AA  24056.68876585  .00000900  00000-0  74626-4 0  9993,2 51738  53.2173  54.5813 0001471  97.3006 262.8153 15.08839466112507,6917.882,95.438,540.765,538.729,0.0
51738.0,STARLINK-3515,PAYLOAD,2024-02-26 03:39:31,15.08834069,0.0001516,53.2175,52.4997,98.1948,261.9216,2.3105e-05,8e-07,0.0,0 STARLINK-3515,1 51738U 22016AA  24057.15245247  .00000080  00000-0  23105-4 0  9996,2 51738  53.2175  52.4997 0001516  98.1948 261.9216 15.08834069112574,6917.899,95.438,540.812,538.715,0.0
51738.0,STARLINK-3515,PAYLOAD,2024-02-26 05:14:55,15.08834676,0.0001514,53.2174,52.2023,98.0577,262.0587,2.8377e-05,1.64e-06,0.0,0 STARLINK-3515,1 51738U 22016AA  24057.21869217  .00000164  00000-0  28377-4 0  9991,2 51738  53.2174  52.2023 0001514  98.0577 262.0587 15.08834676112584,6917.897,95.438,540.809,538.714,0.0
51738.0,STARLINK-3515,PAYLOAD,2024-02-26 22:44:11,15.08815556,0.0001585,53.2173,48.9322,95.4853,264.632,-2.8396e-05,-7.4e-06,0.0,0 STARLINK-3515,1 51738U 22016AA  24057.94735291 -.00000740  00000-0 -28396-4 0  9998,2 51738  53.2173  48.9322 0001585  95.4853 264.6320 15.08815556111581,6917.955,95.439,540.917,538.724,0.0
51738.0,STARLINK-3515,PAYLOAD,2024-02-27 03:30:20,15.08821111,0.0001855,53.2183,48.0409,114.1875,245.9312,-5.1997e-05,-1.115e-05,0.0,0 STARLINK-3515,1 51738U 22016AA  24058.14607132 -.00001115  00000-0 -51997-4 0  9993,2 51738  53.2183  48.0409 0001855 114.1875 245.9312 15.08821111112726,6917.938,95.439,541.086,538.52,0.0
51738.0,STARLINK-3515,PAYLOAD,2024-02-27 08:16:28,15.0883916,0.0001555,53.2171,47.1427,101.7655,258.3511,6.7469e-05,7.86e-06,0.0,0 STARLINK-3515,1 51738U 22016AA  24058.34477924  .00000786  00000-0  67469-4 0  9991,2 51738  53.2171  47.1427 0001555 101.7655 258.3511 15.08839160112753,6917.883,95.438,540.824,538.672,0.0
51738.0,STARLINK-3515,PAYLOAD,2024-02-27 16:13:24,15.08844793,0.000158,53.2181,45.6583,87.4353,272.682,0.00012727,1.738e-05,0.0,0 STARLINK-3515,1 51738U 22016AA  24058.67597498  .00001738  00000-0  12727-3 0  9990,2 51738  53.2181  45.6583 0001580  87.4353 272.6820 15.08844793112809,6917.866,95.437,540.824,538.638,0.0
51738.0,STARLINK-3515,PAYLOAD,2024-02-28 03:21:05,15.08851897,0.0001575,53.2177,43.5764,88.5585,271.5587,0.00026156,3.879e-05,0.0,0 STARLINK-3515,1 51738U 22016AA  24059.13964711  .00003879  00000-0  26156-3 0  9997,2 51738  53.2177  43.5764 0001575  88.5585 271.5587 15.08851897112873,6917.844,95.437,540.799,538.619,0.0
51738.0,STARLINK-3515,PAYLOAD,2024-02-28 06:31:52,15.08843519,0.0001716,53.2171,42.9813,92.5859,267.533,0.00084768,0.0001323,0.0,0 STARLINK-3515,1 51738U 22016AA  24059.27213883  .00013230  00000-0  84768-3 0  9994,2 51738  53.2171  42.9813 0001716  92.5859 267.5330 15.08843519112896,6917.87,95.437,540.922,538.548,0.0
51738.0,STARLINK-3515,PAYLOAD,2024-02-28 16:04:11,15.08845327,0.000174,53.2176,41.1998,87.5975,272.5217,0.00035744,5.406e-05,0.0,0 STARLINK-3515,1 51738U 22016AA  24059.66957658  .00005406  00000-0  35744-3 0  9998,2 51738  53.2176  41.1998 0001740  87.5975 272.5217 15.08845327112952,6917.864,95.437,540.933,538.525,0.0
51738.0,STARLINK-3515,PAYLOAD,2024-02-28 22:25:43,15.08848783,0.0001622,53.2182,40.0077,94.7832,265.3345,0.00024216,3.569e-05,0.0,0 STARLINK-3515,1 51738U 22016AA  24059.93453378  .00003569  00000-0  24216-3 0  9998,2 51738  53.2182  40.0077 0001622  94.7832 265.3345 15.08848783111888,6917.854,95.437,540.841,538.596,0.0
51738.0,STARLINK-3515,PAYLOAD,2024-02-29 04:47:16,15.08843642,0.00015,53.2164,38.8185,93.5098,266.6065,0.00013918,1.928e-05,0.0,0 STARLINK-3515,1 51738U 22016AA  24060.19949606  .00001928  00000-0  13918-3 0  9996,2 51738  53.2164  38.8185 0001500  93.5098 266.6065 15.08843642113030,6917.869,95.437,540.772,538.697,0.0
51738.0,STARLINK-3515,PAYLOAD,2024-02-29 07:58:02,15.08847787,0.0001639,53.2166,38.2231,85.1393,274.9786,0.00015293,2.147e-05,0.0,0 STARLINK-3515,1 51738U 22016AA  24060.33197419  .00002147  00000-0  15293-3 0  9991,2 51738  53.2166  38.2231 0001639  85.1393 274.9786 15.08847787113054,6917.857,95.437,540.855,538.588,0.0
51738.0,STARLINK-3515,PAYLOAD,2024-02-29 15:54:57,15.08853186,0.0001543,53.2166,36.7373,85.0872,275.0296,0.00012061,1.633e-05,0.0,0 STARLINK-3515,1 51738U 22016AA  24060.66316952  .00001633  00000-0  12061-3 0  9991,2 51738  53.2166  36.7373 0001543  85.0872 275.0296 15.08853186113103,6917.84,95.437,540.773,538.638,0.0
